DELTA 2 R/B(1)          
1 20453U 90008B   26055.59825513  .00057585  00000+0  72142-3 0  9995
2 20453  35.6035 260.6447 0088121 136.8018 223.9671 15.54000294924098
COSMOS 2058             
1 20465U 90010A   26055.47193584  .00004080  00000+0  24116-3 0  9994
2 20465  82.4674  60.4501 0010297  27.9457 332.2323 15.11188148940244
SL-14 R/B               
1 20466U 90010B   26055.33242628  .00000375  00000+0  42606-4 0  9992
2 20466  82.5001 279.9383 0019495 348.3941  11.6822 14.83556186926506
SL-14 R/B               
1 20511U 90018B   26055.53992805  .00000475  00000+0  56629-4 0  9993
2 20511  82.5182 235.3822 0017374 132.1282 228.1413 14.82128379920639
HST                     
1 20580U 90037B   26055.50023499  .00007544  00000+0  25044-3 0  9991
2 20580  28.4688 129.9586 0001224 343.5481  16.5075 15.29250790771290
SL-16 R/B               
1 20625U 90046B   26055.47784187  .00000017  00000+0  33516-4 0  9997
2 20625  71.0016 325.6608 0015778 317.6923  42.2982 14.15015233846528
COSMOS 2084             
1 20663U 90055A   26055.30580449  .00003091  00000+0  22669-3 0  9997
2 20663  62.7912  21.2210 0019170 186.8885 173.1955 15.05554175934304
SL-6 R/B(2)             
1 20666U 90055D   26055.40326382  .00002173  00000+0  17224-3 0  9996
2 20666  62.7832 299.0322 0022701 343.6258  16.4105 15.03524237936197
SL-8 R/B                
1 20775U 90078B   26055.53734377  .00013182  00000+0  38656-3 0  9997
2 20775  82.9007 263.1362 0365109  58.1257 305.4944 14.88582738807349
SL-8 R/B                
1 21088U 91006B   26055.47944470  .00000055  00000+0  39201-4 0  9990
2 21088  82.9459 179.8660 0023655  73.7610 358.9983 13.77492776762250
OKEAN-3                 
1 21397U 91039A   26055.31291561  .00003487  00000+0  24528-3 0  9995
2 21397  82.5203 349.7995 0014996  22.9720 337.2174 15.04698290863021
COSMOS 2151             
1 21422U 91042A   26055.54244375  .00001494  00000+0  11762-3 0  9996
2 21422  82.4939  96.3610 0014114 102.9244 257.3557 15.00048646861223
