CCSDS_OMM_VERS = 2.0
CREATION_DATE  = 
ORIGINATOR     = 

OBJECT_NAME    = DELTA 2 R/B(1)
OBJECT_ID      = 1990-008B
CENTER_NAME    = EARTH
REF_FRAME      = TEME
TIME_SYSTEM    = UTC
MEAN_ELEMENT_THEORY = SGP/SGP4

EPOCH          = 2026-02-24T14:21:29.243232
MEAN_MOTION    = 15.54000294
ECCENTRICITY   = .00881215
INCLINATION    = 35.6035
RA_OF_ASC_NODE = 260.6447
ARG_OF_PERICENTER = 136.8018
MEAN_ANOMALY   = 223.9671

EPHEMERIS_TYPE = 0
CLASSIFICATION_TYPE = U
NORAD_CAT_ID   = 20453
ELEMENT_SET_NO = 999
REV_AT_EPOCH   = 92409
BSTAR          = .72142305E-3
MEAN_MOTION_DOT = .57585E-3
MEAN_MOTION_DDOT = 0

CCSDS_OMM_VERS = 2.0
CREATION_DATE  = 
ORIGINATOR     = 

OBJECT_NAME    = COSMOS 2058
OBJECT_ID      = 1990-010A
CENTER_NAME    = EARTH
REF_FRAME      = TEME
TIME_SYSTEM    = UTC
MEAN_ELEMENT_THEORY = SGP/SGP4

EPOCH          = 2026-02-24T11:19:35.256576
MEAN_MOTION    = 15.11188148
ECCENTRICITY   = .00102973
INCLINATION    = 82.4674
RA_OF_ASC_NODE = 60.4501
ARG_OF_PERICENTER = 27.9457
MEAN_ANOMALY   = 332.2323

EPHEMERIS_TYPE = 0
CLASSIFICATION_TYPE = U
NORAD_CAT_ID   = 20465
ELEMENT_SET_NO = 999
REV_AT_EPOCH   = 94024
BSTAR          = .241165E-3
MEAN_MOTION_DOT = .408E-4
MEAN_MOTION_DDOT = 0

CCSDS_OMM_VERS = 2.0
CREATION_DATE  = 
ORIGINATOR     = 

OBJECT_NAME    = SL-14 R/B
OBJECT_ID      = 1990-010B
CENTER_NAME    = EARTH
REF_FRAME      = TEME
TIME_SYSTEM    = UTC
MEAN_ELEMENT_THEORY = SGP/SGP4

EPOCH          = 2026-02-24T07:58:41.630592
MEAN_MOTION    = 14.83556186
ECCENTRICITY   = .00194955
INCLINATION    = 82.5001
RA_OF_ASC_NODE = 279.9383
ARG_OF_PERICENTER = 348.3941
MEAN_ANOMALY   = 11.6822

EPHEMERIS_TYPE = 0
CLASSIFICATION_TYPE = U
NORAD_CAT_ID   = 20466
ELEMENT_SET_NO = 999
REV_AT_EPOCH   = 92650
BSTAR          = .42605811E-4
MEAN_MOTION_DOT = .375E-5
MEAN_MOTION_DDOT = 0

CCSDS_OMM_VERS = 2.0
CREATION_DATE  = 
ORIGINATOR     = 

OBJECT_NAME    = SL-14 R/B
OBJECT_ID      = 1990-018B
CENTER_NAME    = EARTH
REF_FRAME      = TEME
TIME_SYSTEM    = UTC
MEAN_ELEMENT_THEORY = SGP/SGP4

EPOCH          = 2026-02-24T12:57:29.783520
MEAN_MOTION    = 14.82128379
ECCENTRICITY   = .00173744
INCLINATION    = 82.5182
RA_OF_ASC_NODE = 235.3822
ARG_OF_PERICENTER = 132.1282
MEAN_ANOMALY   = 228.1413

EPHEMERIS_TYPE = 0
CLASSIFICATION_TYPE = U
NORAD_CAT_ID   = 20511
ELEMENT_SET_NO = 999
REV_AT_EPOCH   = 92063
BSTAR          = .56628989E-4
MEAN_MOTION_DOT = .475E-5
MEAN_MOTION_DDOT = 0

CCSDS_OMM_VERS = 2.0
CREATION_DATE  = 
ORIGINATOR     = 

OBJECT_NAME    = HST
OBJECT_ID      = 1990-037B
CENTER_NAME    = EARTH
REF_FRAME      = TEME
TIME_SYSTEM    = UTC
MEAN_ELEMENT_THEORY = SGP/SGP4

EPOCH          = 2026-02-24T12:00:20.303136
MEAN_MOTION    = 15.29250790
ECCENTRICITY   = .00012244
INCLINATION    = 28.4688
RA_OF_ASC_NODE = 129.9586
ARG_OF_PERICENTER = 343.5481
MEAN_ANOMALY   = 16.5075

EPHEMERIS_TYPE = 0
CLASSIFICATION_TYPE = U
NORAD_CAT_ID   = 20580
ELEMENT_SET_NO = 999
REV_AT_EPOCH   = 77129
BSTAR          = .25043914E-3
MEAN_MOTION_DOT = .7544E-4
MEAN_MOTION_DDOT = 0

CCSDS_OMM_VERS = 2.0
CREATION_DATE  = 
ORIGINATOR     = 

OBJECT_NAME    = SL-16 R/B
OBJECT_ID      = 1990-046B
CENTER_NAME    = EARTH
REF_FRAME      = TEME
TIME_SYSTEM    = UTC
MEAN_ELEMENT_THEORY = SGP/SGP4

EPOCH          = 2026-02-24T11:28:05.537568
MEAN_MOTION    = 14.15015233
ECCENTRICITY   = .00157783
INCLINATION    = 71.0016
RA_OF_ASC_NODE = 325.6608
ARG_OF_PERICENTER = 317.6923
MEAN_ANOMALY   = 42.2982

EPHEMERIS_TYPE = 0
CLASSIFICATION_TYPE = U
NORAD_CAT_ID   = 20625
ELEMENT_SET_NO = 999
REV_AT_EPOCH   = 84652
BSTAR          = .33515814E-4
MEAN_MOTION_DOT = .17E-6
MEAN_MOTION_DDOT = 0

CCSDS_OMM_VERS = 2.0
CREATION_DATE  = 
ORIGINATOR     = 

OBJECT_NAME    = COSMOS 2084
OBJECT_ID      = 1990-055A
CENTER_NAME    = EARTH
REF_FRAME      = TEME
TIME_SYSTEM    = UTC
MEAN_ELEMENT_THEORY = SGP/SGP4

EPOCH          = 2026-02-24T07:20:21.507936
MEAN_MOTION    = 15.05554175
ECCENTRICITY   = .001917
INCLINATION    = 62.7912
RA_OF_ASC_NODE = 21.2210
ARG_OF_PERICENTER = 186.8885
MEAN_ANOMALY   = 173.1955

EPHEMERIS_TYPE = 0
CLASSIFICATION_TYPE = U
NORAD_CAT_ID   = 20663
ELEMENT_SET_NO = 999
REV_AT_EPOCH   = 93430
BSTAR          = .22669E-3
MEAN_MOTION_DOT = .3091E-4
MEAN_MOTION_DDOT = 0

CCSDS_OMM_VERS = 2.0
CREATION_DATE  = 
ORIGINATOR     = 

OBJECT_NAME    = SL-6 R/B(2)
OBJECT_ID      = 1990-055D
CENTER_NAME    = EARTH
REF_FRAME      = TEME
TIME_SYSTEM    = UTC
MEAN_ELEMENT_THEORY = SGP/SGP4

EPOCH          = 2026-02-24T09:40:41.994048
MEAN_MOTION    = 15.03524237
ECCENTRICITY   = .00227011
INCLINATION    = 62.7832
RA_OF_ASC_NODE = 299.0322
ARG_OF_PERICENTER = 343.6258
MEAN_ANOMALY   = 16.4105

EPHEMERIS_TYPE = 0
CLASSIFICATION_TYPE = U
NORAD_CAT_ID   = 20666
ELEMENT_SET_NO = 999
REV_AT_EPOCH   = 93619
BSTAR          = .17224011E-3
MEAN_MOTION_DOT = .2173E-4
MEAN_MOTION_DDOT = 0

CCSDS_OMM_VERS = 2.0
CREATION_DATE  = 
ORIGINATOR     = 

OBJECT_NAME    = SL-8 R/B
OBJECT_ID      = 1990-078B
CENTER_NAME    = EARTH
REF_FRAME      = TEME
TIME_SYSTEM    = UTC
MEAN_ELEMENT_THEORY = SGP/SGP4

EPOCH          = 2026-02-24T12:53:46.501728
MEAN_MOTION    = 14.88582738
ECCENTRICITY   = .03651093
INCLINATION    = 82.9007
RA_OF_ASC_NODE = 263.1362
ARG_OF_PERICENTER = 58.1257
MEAN_ANOMALY   = 305.4944

EPHEMERIS_TYPE = 0
CLASSIFICATION_TYPE = U
NORAD_CAT_ID   = 20775
ELEMENT_SET_NO = 999
REV_AT_EPOCH   = 80734
BSTAR          = .38655788E-3
MEAN_MOTION_DOT = .13182E-3
MEAN_MOTION_DDOT = 0

CCSDS_OMM_VERS = 2.0
CREATION_DATE  = 
ORIGINATOR     = 

OBJECT_NAME    = SL-8 R/B
OBJECT_ID      = 1991-006B
CENTER_NAME    = EARTH
REF_FRAME      = TEME
TIME_SYSTEM    = UTC
MEAN_ELEMENT_THEORY = SGP/SGP4

EPOCH          = 2026-02-24T11:30:24.022080
MEAN_MOTION    = 13.77492776
ECCENTRICITY   = .00236559
INCLINATION    = 82.9459
RA_OF_ASC_NODE = 179.8660
ARG_OF_PERICENTER = 73.7610
MEAN_ANOMALY   = 358.9983

EPHEMERIS_TYPE = 0
CLASSIFICATION_TYPE = U
NORAD_CAT_ID   = 21088
ELEMENT_SET_NO = 999
REV_AT_EPOCH   = 76225
BSTAR          = .39201365E-4
MEAN_MOTION_DOT = .55E-6
MEAN_MOTION_DDOT = 0

CCSDS_OMM_VERS = 2.0
CREATION_DATE  = 
ORIGINATOR     = 

OBJECT_NAME    = OKEAN-3
OBJECT_ID      = 1991-039A
CENTER_NAME    = EARTH
REF_FRAME      = TEME
TIME_SYSTEM    = UTC
MEAN_ELEMENT_THEORY = SGP/SGP4

EPOCH          = 2026-02-24T07:30:35.908704
MEAN_MOTION    = 15.04698290
ECCENTRICITY   = .0014996
INCLINATION    = 82.5203
RA_OF_ASC_NODE = 349.7995
ARG_OF_PERICENTER = 22.9720
MEAN_ANOMALY   = 337.2174

EPHEMERIS_TYPE = 0
CLASSIFICATION_TYPE = U
NORAD_CAT_ID   = 21397
ELEMENT_SET_NO = 999
REV_AT_EPOCH   = 86302
BSTAR          = .24528E-3
MEAN_MOTION_DOT = .3487E-4
MEAN_MOTION_DDOT = 0

CCSDS_OMM_VERS = 2.0
CREATION_DATE  = 
ORIGINATOR     = 

OBJECT_NAME    = COSMOS 2151
OBJECT_ID      = 1991-042A
CENTER_NAME    = EARTH
REF_FRAME      = TEME
TIME_SYSTEM    = UTC
MEAN_ELEMENT_THEORY = SGP/SGP4

EPOCH          = 2026-02-24T13:01:07.140000
MEAN_MOTION    = 15.00048646
ECCENTRICITY   = .00141149
INCLINATION    = 82.4939
RA_OF_ASC_NODE = 96.3610
ARG_OF_PERICENTER = 102.9244
MEAN_ANOMALY   = 257.3557

EPHEMERIS_TYPE = 0
CLASSIFICATION_TYPE = U
NORAD_CAT_ID   = 21422
ELEMENT_SET_NO = 999
REV_AT_EPOCH   = 86122
BSTAR          = .11761547E-3
MEAN_MOTION_DOT = .1494E-4
MEAN_MOTION_DDOT = 0

